#cP2016  6 10  0  0  0.00000000     192 ORBIT IGb08 HLM  IGS
## 1900 432000.00000000   900.00000000 57549 0.0000000000000
+   31   G01G02G03G05G06G07G08G09G10G11G12G13G14G15G16G17G18
+        G19G20G21G22G23G24G25G26G27G28G29G30G31G32  0  0  0
+          0  0  0  0  0  0  0  0  0  0  0  0  0  0  0  0  0
+          0  0  0  0  0  0  0  0  0  0  0  0  0  0  0  0  0
+          0  0  0  0  0  0  0  0  0  0  0  0  0  0  0  0  0
++         3  4  4  3  3  4  3  3  3  3  3  4  4  4  4  4  4
++         4  3  3  3  4  3  3  3  3  4  4  4  5  3  0  0  0
++         0  0  0  0  0  0  0  0  0  0  0  0  0  0  0  0  0
++         0  0  0  0  0  0  0  0  0  0  0  0  0  0  0  0  0
++         0  0  0  0  0  0  0  0  0  0  0  0  0  0  0  0  0
%c G  cc GPS ccc cccc cccc cccc cccc ccccc ccccc ccccc ccccc
%c cc cc ccc ccc cccc cccc cccc cccc ccccc ccccc ccccc ccccc
%f  1.2500000  1.025000000  0.00000000000  0.000000000000000
%f  0.0000000  0.000000000  0.00000000000  0.000000000000000
%i    0    0    0    0      0      0      0      0         0
%i    0    0    0    0      0      0      0      0         0
/* ULTRA ORBIT COMBINATION 19006_00 (57550.000) FROM:       
/* cou emu esu gfu siu usu                                  
/* REFERENCED TO emu CLOCK AND TO WEIGHTED MEAN POLE:       
/* PCV:IGS08_1900 OL/AL:FES2004  NONE     Y  ORB:CMB CLK:CMB
*  2016  6 10 12 45  0.00000000
PG01 -21797.857284 -14418.283689  -5485.694536     23.184046  8  4  8 209       
PG02   4202.227333  17504.616029  20087.877325    586.359896  7     5 175       
PG03 -13294.726180 -15660.493549  16842.402816    -66.008192  5  3  7 204       
PG05   3465.423550  26205.013569  -1045.666496   -113.945366  3  7  6 212       
PG06 -12139.486600  10564.790653  21144.012103    202.778411  5  1    202       
PG07 -24460.870334  -4488.265849  -9747.272773    449.330097  9  6  9 202       
PG08  -6625.388863 -13773.308983 -21670.239836    -38.490498     2  5 196       
PG09 -22297.149517   3896.396078  13895.888422    145.931025  6  6  6 151       
PG10  11434.400982 -15414.306661 -18310.689136    -42.350811  2  1  4 283       
PG11 -19344.502166 -12339.449125 -13964.625696   -650.069696  7  6 11 194       
PG12  10591.128791  19204.270227  15001.356093    382.335226  5  5  5 197       
PG13  -2789.236546  17234.888563 -20166.566409    -23.774829  8  2  6 161       
PG14  19039.767896 -17093.707876   7075.392849    -18.596512  8  7  8 200       
PG15  10453.795465  12021.658594 -21380.171201   -314.681769  8  6  6 193       
PG16   -851.782155 -26330.334415   -506.135468    -11.770217  9     6 210       
PG17 -21662.872324  15138.315257   1600.374323   -204.003038  9  9  9 215       
PG18  15579.609807  -2172.287102 -20855.538601    524.984462  8  6 10 183       
PG19 -17117.561117  17733.461637  10120.010709   -525.525651  6  9  8 199       
PG20  13722.632368  18226.487883 -13714.568391    417.588306  7  4  2 210       
PG21  23804.449812   1222.787098 -11205.393634   -525.405047 11  6  8 223       
PG22 -10404.122347 -22339.621730   9990.301288    323.150687  6  6  8 212       
PG23 -17578.370611  -4892.216349  19640.280905   -177.531540  8  8  8 183       
PG24  19898.158287  15449.746384  -8777.322455    -18.352381  4  8  8 210       
PG25  14753.845846   6808.441186  20923.972121   -187.630562  4  6  6 186       
PG26   4615.856551 -24153.522965   9972.197374   -391.532368  4  5  7 166       
PG27   4907.040355 -18714.566339 -18153.932492    101.990046  3  1  5 157       
PG28 -12164.097783  13388.354089 -18806.378554    529.155858 11  5  7 214       
PG29  20940.666407   -136.469965  16314.656304    656.802177  7  8  4 237       
PG30 -19918.077511   3190.746634 -17338.026604    132.022629  5  2  7 166       
PG31   9401.825414 -12008.827477  21872.861391    264.620153 13 10  8 230       
PG32  20444.945196 -16759.263653   2484.537476    -21.793623  2  7  7 294       
*  2016  6 10 13  0  0.00000000
PG01 -21008.261776 -14311.718238  -8191.834182     23.185129  8  5  8 206       
PG02   2060.655524  16780.486112  21004.134908    586.357767  8     6 174       
PG03 -13342.148788 -17483.981388  14897.485159    -66.011389  5  3  7 201       
PG05   3148.097472  26197.794760   1791.559231   -113.943056  3  7  5 214       
PG06 -14290.519417   9580.098337  20249.702642    202.783248  5  2  1 203       
PG07 -25267.201562  -5064.120562  -7124.909566    449.327879  9  5  9 200       
PG08  -4645.635627 -15238.776258 -21196.588064    -38.491496     2  5 198       
PG09 -21059.895887   2698.692874  15954.118994    145.937489  7  6  7  77       
PG10  11840.036185 -13267.902931 -19686.842039    -42.358251  2     5 282       
PG11 -17697.218816 -12582.286875 -15875.892853   -650.070731  7  6 11 196       
PG12  10581.280783  20804.740656  12741.502512    382.336106  5  6  6 197       
PG13  -4734.090884  18273.149649 -18845.654750    -23.777508  9  2  6 149       
PG14  19697.466623 -17223.847543   4303.231045    -18.598636  8  7  8 200       
PG15   8592.823674  13576.738354 -21245.745504   -314.683183  7  6  5 197       
PG16   -646.394082 -26218.459742   2428.662221    -11.767960  8     6 209       
PG17 -21774.407853  14943.173496  -1298.126182   -204.003362  9  9  9 216       
PG18  15960.000727    303.816961 -20705.297625    524.988033  7  7 10 187       
PG19 -18086.392425  18121.463265   7501.153454   -525.525541  7  9  8 198       
PG20  13741.297143  19683.426891 -11470.851471    417.590006  6  4  2 209       
PG21  24852.763975   1939.120062  -8741.885956   -525.406429 11  6  8 223       
PG22 -10225.403039 -23357.824882   7453.229215    323.142872  6  6  8 214       
PG23 -15830.142794  -6328.416431  20660.099627   -177.533064  9  8  9 166       
PG24  18753.330600  15256.642699 -11276.802776    -18.352704  3  7  8 208       
PG25  14972.343276   9149.993248  19872.223413   -187.636985  5  7  6 171       
PG26   5005.986966 -22910.328843  12420.230182   -391.542629  4  6  7 163       
PG27   6564.371674 -19795.611678 -16379.353768    101.993803  4  1  6 143       
PG28 -12369.006692  11049.371872 -20108.550609    529.158365 10  5  7 215       
PG29  19381.618664   1069.823799  18112.282579    656.801923  7  8  4 237       
PG30 -21514.142672   2189.424347 -15496.536153    132.025160  5  2  8 172       
PG31  11612.874607 -10962.745514  21383.653115    264.618498 13 10  9 230       
PG32  20698.141558 -16626.153159   -366.697154    -21.800611  2  8  6 293       
*  2016  6 10 13 15  0.00000000
PG01 -19935.108488 -14146.574264 -10759.296711     23.186208  8  6  8 204       
PG02   -195.577427  16141.233072  21574.886174    586.355486  8     7 177       
PG03 -13441.387232 -19071.916490  12696.296262    -66.014465  5  4  8 196       
PG05   2768.787360  25891.797117   4597.548152   -113.940312  4  7  5 213       
PG06 -16376.402764   8750.248037  19007.397332    202.788164  5  4  2 200       
PG07 -25820.993998  -5486.832146  -4382.301826    449.325881  9  5  9 202       
PG08  -2801.554402 -16757.275670 -20356.391220    -38.493233  1  3  5 204       
PG09 -19721.153474   1296.787984  17737.729651    145.944024  7  7  7 113       
PG10  12381.279460 -11011.420153 -20723.048010    -42.365599  3  2  5 282       
PG11 -15869.241971 -12898.953768 -17524.134369   -650.071838  5  7 11 183       
PG12  10627.902774  22135.118040  10263.141588    382.337306  6  6  7 191       
PG13  -6481.616523  19321.860583 -17204.554565    -23.779855  9     5 148       
PG14  20091.882449 -17198.993581   1456.672260    -18.600110  8  8  8 205       
PG15   6830.743842  15196.451164 -20748.905987   -314.684852  6  5  5 198       
PG16   -396.595635 -25786.005748   5320.588332    -11.765861  7     7 208       
PG17 -21637.956940  14549.683723  -4173.947093   -204.002860  9  9 10 211       
PG18  16442.275827   2719.074236 -20181.556376    524.991865  6  7 10 191       
PG19 -18782.458214  18388.709931   4754.875656   -525.524915  8  9  8 205       
PG20  13758.246090  20885.240443  -9030.725957    417.591867  4  4  4 210       
PG21  25657.224174   2508.124188  -6125.392990   -525.407055 11  6  8 224       
PG22 -10030.197793 -24098.786974   4787.968171    323.135561  7  7  8 217       
PG23 -14082.814944  -7915.262729  21333.293771   -177.534515 10  8  9 171       
PG24  17343.136963  15037.612909 -13584.714715    -18.353204  4  7  8 204       
PG25  15293.476992  11336.935602  18476.591723   -187.643285  5  6  6 173       
PG26   5510.255506 -21428.668295  14653.947224   -391.552858  3  6  7 164       
PG27   7997.771356 -20822.275030 -14321.591610    101.997504  4  2  5 152       
PG28 -12716.876836   8592.912810 -21044.706903    529.160815 10  6  7 220       
PG29  17743.064964   2472.426503  19597.836983    656.801769  8  8  4 236       
PG30 -22954.269251   1359.528337 -13389.684105    132.027649  5  4  8 174       
PG31  13804.339445 -10067.012135  20531.781132    264.617045 13 10 10 228       
PG32  20713.822124 -16295.440062  -3211.612531    -21.807566  3  8  5 293       
EOF
